[{"OBJECT_NAME":"VSP RF B1","OBJECT_ID":"2024-043AR","EPOCH":"2026-03-09T22:40:29.479296","MEAN_MOTION":15.26694159,"ECCENTRICITY":0.00102608,"INCLINATION":97.5446,"RA_OF_ASC_NODE":204.7052,"ARG_OF_PERICENTER":220.7435,"MEAN_ANOMALY":139.3037,"EPHEMERIS_TYPE":0,"CLASSIFICATION_TYPE":"U","NORAD_CAT_ID":59137,"ELEMENT_SET_NO":999,"REV_AT_EPOCH":11187,"BSTAR":0.00024406819,"MEAN_MOTION_DOT":6.341e-5,"MEAN_MOTION_DDOT":0},{"OBJECT_NAME":"STARLINK-33947","OBJECT_ID":"2025-091N","EPOCH":"2026-03-09T22:10:00.570144","MEAN_MOTION":15.276434,"ECCENTRICITY":0.0001886,"INCLINATION":43.0021,"RA_OF_ASC_NODE":51.5792,"ARG_OF_PERICENTER":287.9526,"MEAN_ANOMALY":72.112,"EPHEMERIS_TYPE":0,"CLASSIFICATION_TYPE":"U","NORAD_CAT_ID":63787,"ELEMENT_SET_NO":999,"REV_AT_EPOCH":4893,"BSTAR":0.0013772645,"MEAN_MOTION_DOT":0.00037906,"MEAN_MOTION_DDOT":0}]
